start=new Date('2023-03-30T00:00:00.000Z').valueOf();
sats=[{"TLE_LINE1":"1 53608U 22104W   23088.23119536  .00005153  00000-0  34144-3 0  9995","PERIOD":"95.436","INCLINATION":"53.2169","PERIAPSIS":"538.887","MEAN_MOTION":"15.08859537","EPHEMERIS_TYPE":"0","SITE":"AFETR","EPOCH":"2023-03-29T05:32:55.279104","TIME_SYSTEM":"UTC","NORAD_CAT_ID":"53608","TLE_LINE2":"2 53608  53.2169  26.7222 0001154 102.3331 257.7790 15.08859537 32558","GP_ID":"229113251","MEAN_MOTION_DOT":"0.00005153","BSTAR":"0.00034144000000","CLASSIFICATION_TYPE":"U","CENTER_NAME":"EARTH","MEAN_ANOMALY":"257.7790","COUNTRY_CODE":"US","DECAY_DATE":null,"ECCENTRICITY":"0.00011540","FILE":"3874667","RCS_SIZE":"LARGE","MEAN_ELEMENT_THEORY":"SGP4","RA_OF_ASC_NODE":"26.7222","OBJECT_ID":"2022-104W","OBJECT_TYPE":"PAYLOAD","ELEMENT_SET_NO":"999","APOAPSIS":"540.484","LAUNCH_DATE":"2022-08-28","MEAN_MOTION_DDOT":"0.0000000000000","OBJECT_NAME":"STARLINK-4647","REV_AT_EPOCH":"3255","SEMIMAJOR_AXIS":"6917.821","REF_FRAME":"TEME","ARG_OF_PERICENTER":"102.3331"},{"MEAN_MOTION_DDOT":"0.0000000000000","ELEMENT_SET_NO":"999","OBJECT_TYPE":"PAYLOAD","LAUNCH_DATE":"2022-08-28","APOAPSIS":"540.432","SEMIMAJOR_AXIS":"6917.774","REF_FRAME":"TEME","ARG_OF_PERICENTER":"72.0276","OBJECT_NAME":"STARLINK-4660","REV_AT_EPOCH":"3318","COUNTRY_CODE":"US","DECAY_DATE":null,"CENTER_NAME":"EARTH","MEAN_ANOMALY":"288.0841","RCS_SIZE":"LARGE","FILE":"3874492","RA_OF_ASC_NODE":"31.1439","OBJECT_ID":"2022-104X","MEAN_ELEMENT_THEORY":"SGP4","ECCENTRICITY":"0.00011460","NORAD_CAT_ID":"53609","TLE_LINE2":"2 53609  53.2182  31.1439 0001146  72.0276 288.0841 15.08874732 33184","MEAN_MOTION_DOT":"0.00035313","GP_ID":"229107377","BSTAR":"0.00222370000000","TIME_SYSTEM":"UTC","EPOCH":"2023-03-29T06:01:19.260768","CLASSIFICATION_TYPE":"U","PERIOD":"95.435","TLE_LINE1":"1 53609U 22104X   23088.25091737  .00035313  00000-0  22237-2 0  9990","SITE":"AFETR","PERIAPSIS":"538.846","INCLINATION":"53.2182","EPHEMERIS_TYPE":"0","MEAN_MOTION":"15.08874732"},{"EPOCH":"2023-03-29T02:12:55.157184","TIME_SYSTEM":"UTC","GP_ID":"229107627","TLE_LINE2":"2 53610  53.2184  27.2755 0001264 116.4003 243.7119 15.08866365 33108","BSTAR":"0.00152350000000","MEAN_MOTION_DOT":"0.00024059","NORAD_CAT_ID":"53610","CLASSIFICATION_TYPE":"U","TLE_LINE1":"1 53610U 22104Y   23088.09230506  .00024059  00000-0  15235-2 0  9998","PERIOD":"95.436","MEAN_MOTION":"15.08866365","EPHEMERIS_TYPE":"0","INCLINATION":"53.2184","PERIAPSIS":"538.790","SITE":"AFETR","LAUNCH_DATE":"2022-08-28","APOAPSIS":"540.539","OBJECT_TYPE":"PAYLOAD","ELEMENT_SET_NO":"999","MEAN_MOTION_DDOT":"0.0000000000000","OBJECT_NAME":"STARLINK-4610","REV_AT_EPOCH":"3310","ARG_OF_PERICENTER":"116.4003","REF_FRAME":"TEME","SEMIMAJOR_AXIS":"6917.800","MEAN_ANOMALY":"243.7119","CENTER_NAME":"EARTH","DECAY_DATE":null,"COUNTRY_CODE":"US","ECCENTRICITY":"0.00012640","OBJECT_ID":"2022-104Y","RA_OF_ASC_NODE":"27.2755","MEAN_ELEMENT_THEORY":"SGP4","FILE":"3874492","RCS_SIZE":"LARGE"},{"REV_AT_EPOCH":"3324","OBJECT_NAME":"STARLINK-4650","ARG_OF_PERICENTER":"84.3022","REF_FRAME":"TEME","SEMIMAJOR_AXIS":"6917.824","APOAPSIS":"540.603","LAUNCH_DATE":"2022-08-28","OBJECT_TYPE":"PAYLOAD","ELEMENT_SET_NO":"999","MEAN_MOTION_DDOT":"0.0000000000000","ECCENTRICITY":"0.00013220","RA_OF_ASC_NODE":"26.7463","OBJECT_ID":"2022-104Z","MEAN_ELEMENT_THEORY":"SGP4","FILE":"3874492","RCS_SIZE":"LARGE","MEAN_ANOMALY":"275.8121","CENTER_NAME":"EARTH","DECAY_DATE":null,"COUNTRY_CODE":"US","CLASSIFICATION_TYPE":"U","EPOCH":"2023-03-29T05:38:14.000064","TIME_SYSTEM":"UTC","TLE_LINE2":"2 53611  53.2169  26.7463 0001322  84.3022 275.8121 15.08858519 33247","MEAN_MOTION_DOT":"0.00017740","GP_ID":"229108379","BSTAR":"0.00112930000000","NORAD_CAT_ID":"53611","MEAN_MOTION":"15.08858519","EPHEMERIS_TYPE":"0","INCLINATION":"53.2169","PERIAPSIS":"538.774","SITE":"AFETR","TLE_LINE1":"1 53611U 22104Z   23088.23488426  .00017740  00000-0  11293-2 0  9990","PERIOD":"95.436"},{"TLE_LINE1":"1 53612U 22104AA  23088.28638382  .00045228  00000-0  28383-2 0  9994","PERIOD":"95.435","EPHEMERIS_TYPE":"0","MEAN_MOTION":"15.08883551","PERIAPSIS":"538.648","INCLINATION":"53.2174","SITE":"AFETR","TIME_SYSTEM":"UTC","EPOCH":"2023-03-29T06:52:23.562048","TLE_LINE2":"2 53612  53.2174  26.3544 0001394  72.8974 287.2170 15.08883551 32566","MEAN_MOTION_DOT":"0.00045228","GP_ID":"229074700","BSTAR":"0.00283830000000","NORAD_CAT_ID":"53612","CLASSIFICATION_TYPE":"U","MEAN_ANOMALY":"287.2170","CENTER_NAME":"EARTH","DECAY_DATE":null,"COUNTRY_CODE":"US","ECCENTRICITY":"0.00013940","OBJECT_ID":"2022-104AA","RA_OF_ASC_NODE":"26.3544","MEAN_ELEMENT_THEORY":"SGP4","RCS_SIZE":"LARGE","FILE":"3874141","LAUNCH_DATE":"2022-08-28","APOAPSIS":"540.577","ELEMENT_SET_NO":"999","OBJECT_TYPE":"PAYLOAD","MEAN_MOTION_DDOT":"0.0000000000000","OBJECT_NAME":"STARLINK-4658","REV_AT_EPOCH":"3256","ARG_OF_PERICENTER":"72.8974","REF_FRAME":"TEME","SEMIMAJOR_AXIS":"6917.747"},{"FILE":"3874672","RCS_SIZE":"LARGE","RA_OF_ASC_NODE":"27.2955","OBJECT_ID":"2022-104AB","MEAN_ELEMENT_THEORY":"SGP4","ECCENTRICITY":"0.00011280","COUNTRY_CODE":"US","DECAY_DATE":null,"CENTER_NAME":"EARTH","MEAN_ANOMALY":"266.6695","SEMIMAJOR_AXIS":"6917.854","ARG_OF_PERICENTER":"93.4427","REF_FRAME":"TEME","OBJECT_NAME":"STARLINK-4655","REV_AT_EPOCH":"3253","MEAN_MOTION_DDOT":"0.0000000000000","OBJECT_TYPE":"PAYLOAD","ELEMENT_SET_NO":"999","LAUNCH_DATE":"2022-08-28","APOAPSIS":"540.499","SITE":"AFETR","INCLINATION":"53.2170","PERIAPSIS":"538.939","MEAN_MOTION":"15.08848598","EPHEMERIS_TYPE":"0","PERIOD":"95.437","TLE_LINE1":"1 53613U 22104AB  23088.09503462  .00002016  00000-0  14466-3 0  9990","CLASSIFICATION_TYPE":"U","NORAD_CAT_ID":"53613","BSTAR":"0.00014466000000","TLE_LINE2":"2 53613  53.2170  27.2955 0001128  93.4427 266.6695 15.08848598 32538","GP_ID":"229113477","MEAN_MOTION_DOT":"0.00002016","EPOCH":"2023-03-29T02:16:50.991168","TIME_SYSTEM":"UTC"},{"PERIOD":"95.436","TLE_LINE1":"1 53616U 22104AE  23088.22936958  .00003293  00000-0  22480-3 0  9991","SITE":"AFETR","INCLINATION":"53.2174","PERIAPSIS":"538.786","MEAN_MOTION":"15.08856865","EPHEMERIS_TYPE":"0","NORAD_CAT_ID":"53616","TLE_LINE2":"2 53616  53.2174  16.5400 0001313  92.9694 267.1449 15.08856865 33379","BSTAR":"0.00022480000000","GP_ID":"229108127","MEAN_MOTION_DOT":"0.00003293","EPOCH":"2023-03-29T05:30:17.531712","TIME_SYSTEM":"UTC","CLASSIFICATION_TYPE":"U","COUNTRY_CODE":"US","DECAY_DATE":null,"CENTER_NAME":"EARTH","MEAN_ANOMALY":"267.1449","FILE":"3874492","RCS_SIZE":"LARGE","RA_OF_ASC_NODE":"16.5400","OBJECT_ID":"2022-104AE","MEAN_ELEMENT_THEORY":"SGP4","ECCENTRICITY":"0.00013130","MEAN_MOTION_DDOT":"0.0000000000000","OBJECT_TYPE":"PAYLOAD","ELEMENT_SET_NO":"999","APOAPSIS":"540.602","LAUNCH_DATE":"2022-08-28","SEMIMAJOR_AXIS":"6917.829","ARG_OF_PERICENTER":"92.9694","REF_FRAME":"TEME","OBJECT_NAME":"STARLINK-4605","REV_AT_EPOCH":"3337"},{"OBJECT_NAME":"STARLINK-4601","REV_AT_EPOCH":"3312","SEMIMAJOR_AXIS":"6917.805","ARG_OF_PERICENTER":"77.7589","REF_FRAME":"TEME","ELEMENT_SET_NO":"999","OBJECT_TYPE":"PAYLOAD","APOAPSIS":"540.427","LAUNCH_DATE":"2022-08-28","MEAN_MOTION_DDOT":"0.0000000000000","ECCENTRICITY":"0.00010930","RCS_SIZE":"LARGE","FILE":"3874492","OBJECT_ID":"2022-104AF","RA_OF_ASC_NODE":"26.6310","MEAN_ELEMENT_THEORY":"SGP4","CENTER_NAME":"EARTH","MEAN_ANOMALY":"282.3526","COUNTRY_CODE":"US","DECAY_DATE":null,"CLASSIFICATION_TYPE":"U","TIME_SYSTEM":"UTC","EPOCH":"2023-03-29T05:11:42.195840","NORAD_CAT_ID":"53617","MEAN_MOTION_DOT":"0.00015859","TLE_LINE2":"2 53617  53.2171  26.6310 0001093  77.7589 282.3526 15.08864502 33123","GP_ID":"229108879","BSTAR":"0.00101160000000","PERIAPSIS":"538.914","INCLINATION":"53.2171","EPHEMERIS_TYPE":"0","MEAN_MOTION":"15.08864502","SITE":"AFETR","TLE_LINE1":"1 53617U 22104AF  23088.21646060  .00015859  00000-0  10116-2 0  9996","PERIOD":"95.436"},{"ARG_OF_PERICENTER":"91.0559","REF_FRAME":"TEME","SEMIMAJOR_AXIS":"6917.801","REV_AT_EPOCH":"3254","OBJECT_NAME":"STARLINK-4604","MEAN_MOTION_DDOT":"0.0000000000000","LAUNCH_DATE":"2022-08-28","APOAPSIS":"540.366","OBJECT_TYPE":"PAYLOAD","ELEMENT_SET_NO":"999","RA_OF_ASC_NODE":"26.5650","OBJECT_ID":"2022-104AG","MEAN_ELEMENT_THEORY":"SGP4","FILE":"3874492","RCS_SIZE":"LARGE","ECCENTRICITY":"0.00010120","DECAY_DATE":null,"COUNTRY_CODE":"US","MEAN_ANOMALY":"269.0549","CENTER_NAME":"EARTH","CLASSIFICATION_TYPE":"U","TLE_LINE2":"2 53618  53.2164  26.5650 0001012  91.0559 269.0549 15.08865866 32545","GP_ID":"229108630","BSTAR":"0.00045317000000","MEAN_MOTION_DOT":"0.00006937","NORAD_CAT_ID":"53618","EPOCH":"2023-03-29T04:55:46.500384","TIME_SYSTEM":"UTC","SITE":"AFETR","MEAN_MOTION":"15.08865866","EPHEMERIS_TYPE":"0","INCLINATION":"53.2164","PERIAPSIS":"538.966","PERIOD":"95.436","TLE_LINE1":"1 53618U 22104AG  23088.20539931  .00006937  00000-0  45317-3 0  9993"},{"CLASSIFICATION_TYPE":"U","EPOCH":"2023-03-29T03:31:00.437376","TIME_SYSTEM":"UTC","TLE_LINE2":"2 53619  53.2181  26.9015 0001164  97.8849 262.2275 15.08857664 33110","MEAN_MOTION_DOT":"0.00017821","GP_ID":"229107378","BSTAR":"0.00113440000000","NORAD_CAT_ID":"53619","MEAN_MOTION":"15.08857664","EPHEMERIS_TYPE":"0","INCLINATION":"53.2181","PERIAPSIS":"538.886","SITE":"AFETR","TLE_LINE1":"1 53619U 22104AH  23088.14653284  .00017821  00000-0  11344-2 0  9991","PERIOD":"95.436","REV_AT_EPOCH":"3311","OBJECT_NAME":"STARLINK-4609","REF_FRAME":"TEME","ARG_OF_PERICENTER":"97.8849","SEMIMAJOR_AXIS":"6917.826","LAUNCH_DATE":"2022-08-28","APOAPSIS":"540.497","OBJECT_TYPE":"PAYLOAD","ELEMENT_SET_NO":"999","MEAN_MOTION_DDOT":"0.0000000000000","ECCENTRICITY":"0.00011640","OBJECT_ID":"2022-104AH","RA_OF_ASC_NODE":"26.9015","MEAN_ELEMENT_THEORY":"SGP4","FILE":"3874492","RCS_SIZE":"LARGE","MEAN_ANOMALY":"262.2275","CENTER_NAME":"EARTH","DECAY_DATE":null,"COUNTRY_CODE":"US"}];
